TIANLIAN 2-02           
1 50005U 21124A   25288.30527630 -.00000028  00000+0  00000+0 0  9990
2 50005   0.1656  93.4029 0004816 148.4787  63.1022  1.00271939 14163
TURKSAT 5B              
1 50212U 21126A   25288.63653394  .00000132  00000+0  00000+0 0  9990
2 50212   0.0765 337.0847 0002906 312.1606   6.3513  1.00270961 13848
INMARSAT 6-F1           
1 50319U 21128A   25288.57344030  .00000000  00000+0  00000+0 0  9991
2 50319   0.0190 203.8209 0000316  93.6541  17.0714  1.00268078 13806
SHIYAN-12 01 (SY-12 01) 
1 50321U 21129A   25288.73347051 -.00000369  00000+0  00000+0 0  9998
2 50321   3.0411  83.3118 0002875 179.4763 144.8745  1.00449179 14042
SHIYAN-12 02 (SY-12 02) 
1 50322U 21129B   25288.71907916 -.00000370  00000+0  00000+0 0  9991
2 50322   3.0404  83.3074 0002833 168.8813 151.5231  1.00106663 14041
TJS-9                   
1 50574U 21135A   25288.49365869 -.00000313  00000+0  00000+0 0  9994
2 50574   0.0541  64.5110 0002372 212.7625  61.9578  1.00268485 13979
USA 324                 
1 51280U 22006A   25284.20135219 -.00000043  00000+0  00000+0 0  9996
2 51280   0.1671  79.0127 0000506 109.9083 249.7259  1.00675419 13634
USA 325                 
1 51281U 22006B   25284.72430556 -.00000239  00000+0  00000+0 0  9993
2 51281   0.3000  88.0771 0010246  88.8148 188.8213  1.00531791 13634
GOES 18                 
1 51850U 22021A   25288.60100043  .00000000  00000+0  00000+0 0  9993
2 51850   0.0261  93.6690 0000693 176.0091 194.0566  1.00269868  4145
ZHONGXING-6D            
1 52255U 22038A   25288.58487444 -.00000368  00000+0  00000+0 0  9999
2 52255   0.0246 232.7329 0002664  11.2633 115.9916  1.00268278 12969
NILESAT 301             
1 52817U 22061A   25288.62674056 -.00000072  00000+0  00000+0 0  9993
2 52817   0.0513  15.2086 0002165 212.4887  15.3464  1.00271858 12280
CMS-02 (GSAT 24)        
1 52903U 22067A   25288.57326697 -.00000179  00000+0  00000+0 0  9992
2 52903   0.0358 255.2140 0003324 357.2846  61.2458  1.00272244 12150
MEASAT 3D               
1 52904U 22067B   25288.57500030 -.00000256  00000+0  00000+0 0  9994
2 52904   0.0416 318.4931 0002893 292.6870  71.6807  1.00269024 12194
SES-22                  
1 52933U 22071A   25288.60065376  .00000000  00000+0  00000+0 0  9990
2 52933   0.0167 219.2968 0001020 355.5811 246.7415  1.00267961  5079
WFOV (USA 332)          
1 52940U 22073A   25288.65155080 -.00000374  00000+0  00000+0 0  9992
2 52940   3.0795  81.6704 0001646  81.3656 215.2489  1.00270963 11919
TIANLIAN 2-03           
1 53100U 22078A   25287.90463256  .00000058  00000+0  00000+0 0  9998
2 53100   0.0997  15.8341 0002733 225.2754 118.8785  1.00272551 12093
SBIRS GEO-6 (USA 336)   
1 53355U 22092A   25288.54501745 -.00000311  00000+0  00000+0 0  9996
2 53355   3.6948 314.0954 0002004 264.8592 140.5808  1.00271334 11785
EUTELSAT KONNECT VHTS   
1 53765U 22110A   25288.34332315  .00000003  00000+0  00000+0 0  9992
2 53765   0.0569  96.5898 0002579  96.3414 317.4919  1.00270802  4371
ZHONGXING-1E            
1 53813U 22112A   25286.78377889 -.00000163  00000+0  00000+0 0  9997
2 53813   0.0631  67.0813 0004534 196.0617 123.0191  1.00270298 11371
SES-20                  
1 53960U 22123A   25288.32234971 -.00000116  00000+0  00000+0 0  9996
2 53960   0.0372  78.7813 0001214  36.1446 282.1419  1.00270423 11078
SES-21                  
1 53961U 22123B   25288.60221377  .00000055  00000+0  00000+0 0  9995
2 53961   0.0354  63.2146 0001041 135.8903 271.0965  1.00271349  4769
GALAXY 33 (G-33)        
1 54026U 22128A   25288.60178044  .00000064  00000+0  00000+0 0  9995
2 54026   0.0135 263.8940 0001924 301.6880 262.4625  1.00274084 11298
GALAXY 34 (G-34)        
1 54027U 22128B   25288.60264711  .00000044  00000+0  00000+0 0  9991
2 54027   0.0173 251.2382 0001482 313.3403 267.7837  1.00272539 11467
ANGOSAT 2               
1 54033U 22131A   25286.20667201  .00000124  00000+0  00000+0 0  9996
2 54033   0.0028 182.3357 0001735  90.6689 206.4368  1.00272301 10994
EUTELSAT HOTBIRD 13F    
1 54048U 22134A   25288.63072725  .00000072  00000+0  00000+0 0  9997
2 54048   0.0610 281.0516 0002151  76.8474 266.5788  1.00269893 10920
LDPE-2                  
1 54219U 22144A   25288.43224355 -.00000222  00000+0  00000+0 0  9992
2 54219   5.0515  65.4196 0001648 121.3860  84.6559  1.02361404  9366
EUTELSAT HOTBIRD 13G    
1 54225U 22146A   25288.63072725  .00000073  00000+0  00000+0 0  9998
2 54225   0.0530 237.9906 0001925 303.3860  83.1092  1.00269678  5012
ZHONGXING-19            
1 54230U 22148A   25288.51788670 -.00000094  00000+0  00000+0 0  9990
2 54230   0.0149 167.7123 0007612  64.3123 142.1150  1.00272435 10922
GALAXY 31 (G-31)        
1 54243U 22153A   25288.60420712 -.00000002  00000+0  00000+0 0  9999
2 54243   0.0147 226.9147 0001768   0.9494 253.0534  1.00273315  4683
GALAXY 32 (G-32)        
1 54244U 22153B   25288.53877347  .00000000  00000+0  00000+0 0  9999
2 54244   0.0127 223.9775 0001189  61.7380 201.5564  1.00269095 10691
EUTELSAT 10B            
1 54259U 22157A   25288.63012057  .00000054  00000+0  00000+0 0  9998
2 54259   0.0598  93.8149 0001648  47.4303 119.9858  1.00269700 10572
GALAXY 35 (G-35)        
1 54741U 22170A   25288.60975381 -.00000177  00000+0  00000+0 0  9991
2 54741   0.0179 237.9029 0002133 332.1339 300.7621  1.00273193 10449
GALAXY 36 (G-36)        
1 54742U 22170B   25288.61053382 -.00000200  00000+0  00000+0 0  9998
2 54742   0.0088 174.5441 0001232 347.9970 352.6479  1.00271679 10328
METEOSAT-12 (MTG-I1)    
1 54743U 22170C   25288.62812723 -.00000021  00000+0  00000+0 0  9993
2 54743   0.6974  30.0007 0001400 146.5604  73.5983  1.00273575 10525
SHIJIAN-23 (SJ-23)      
1 55131U 23002A   25288.70318090  .00000081  00000+0  00000+0 0  9992
2 55131   3.0869  81.4156 0002652 148.9320  65.9195  1.00088655 10054
APSTAR-6E               
1 55239U 23005A   25286.94219898 -.00000331  00000+0  00000+0 0  9993
2 55239   0.0198 228.2015 0004321 359.4213 268.3345  1.00268551 16232
USA 342                 
1 55263U 23008A   25286.49214477  .00000000  00000+0  00000+0 0  9993
2 55263   0.0144 208.7778 0001129  43.6242 330.8643  1.00269135 10044
LDPE-3A                 
1 55264U 23008B   25288.56139358  .00000138  00000+0  00000+0 0  9990
2 55264   1.6471  84.2007 0000678 144.1460  21.1300  1.00558517  9362
ELEKTRO-L 4             
1 55506U 23016A   25288.47207213 -.00000073  00000+0  00000+0 0  9993
2 55506   0.0884  45.9236 0002591 185.7793 128.2891  1.00272236  9877
AMAZONAS NEXUS          
1 55508U 23017A   25288.33566869  .00000000  00000+0  00000+0 0  9995
2 55508   0.0183  58.2068 0001063 128.6748 257.0772  1.00267200  4587
ZHONGXING-26            
1 55686U 23023A   25286.94046564 -.00000367  00000+0  00000+0 0  9996
2 55686   0.0609  65.1919 0000845  97.3665 323.8426  1.00267862  9763
LUCH-5X (OLYMP-K 2)     
1 55841U 23031A   25288.71184762  .00000018  00000+0  00000+0 0  9990
2 55841   0.0285  92.6359 0001226 233.1672  16.9735  1.00271861  9487
GAOFEN-13 02            
1 55912U 23036A   25287.61989153 -.00000235  00000+0  00000+0 0  9991
2 55912   1.1504 331.8061 0003436 333.9837  88.9514  1.00267766  9637
SES-18                  
1 55970U 23038A   25288.60776046 -.00000116  00000+0  00000+0 0  9990
2 55970   0.0269 264.2048 0002735 335.1763 260.7191  1.00272061  9651
SES-19                  
1 55971U 23038B   25288.60143376  .00000073  00000+0  00000+0 0  9996
2 55971   0.0129 284.2271 0001663 285.3926 256.3941  1.00273198  9626
INTELSAT 40E (IS-40E)   
1 56174U 23052A   25288.32468972 -.00000189  00000+0  00000+0 0  9998
2 56174   0.0044 194.5831 0002502   4.0094 211.4004  1.00270446  9364
VIASAT-3                
1 56370U 23060A   25288.53920681 -.00000200  00000+0  00000+0 0  9992
2 56370   0.0203 261.9495 0000248 197.7710  29.8169  1.00271930  8983
ARCTURUS                
1 56371U 23060B   25288.33838312 -.00000181  00000+0  00000+0 0  9998
2 56371   2.1404  83.0034 0000140 177.4407 223.4052  1.00272810  9006
GS-1                    
1 56372U 23060C   25288.14199560 -.00000031  00000+0  00000+0 0  9997
2 56372   2.0900  82.7003 0002896 249.5466 169.8994  1.00300167  5084
BEIDOU-3 G4             
1 56564U 23066A   25288.37443661 -.00000129  00000+0  00000+0 0  9993
2 56564   0.9479 297.8423 0005059 224.4581 156.5750  1.00268406  8944
ARABSAT-7B (BADR-8)     
1 56757U 23075A   25288.49048383  .00000130  00000+0  00000+0 0  9993
2 56757   0.0758  28.8352 0001865 308.6906 249.3321  1.00272666  8666
NVS-01 (IRNSS-1J)       
1 56759U 23076A   25288.65791515 -.00000354  00000+0  00000+0 0  9995
2 56759   2.7656 253.5635 0007058 347.6973 149.5294  1.00278960  8665
NUSANTARA TIGA (SATRIA) 
1 57045U 23086A   25288.55400784 -.00000248  00000+0  00000+0 0  9991
2 57045   0.0474 342.9190 0003277 301.5674  85.3032  1.00275541  7307
H2SAT (HEINRICH HERTZ)  
1 57213U 23093A   25288.63289391  .00000061  00000+0  00000+0 0  9996
2 57213   0.0610 243.0650 0001861  31.2293   1.9987  0.99780668  8468
SYRACUSE 4B             
1 57214U 23093B   25288.62682722  .00000000  00000+0  00000+0 0  9994
2 57214   0.0216 213.2301 0000299  82.3834 307.8963  1.00272023  4513
JUPITER 3 (ECHOSTAR 24) 
1 57479U 23108A   25286.20347863 -.00000165  00000+0  00000+0 0  9993
2 57479   0.0142 224.9080 0001758 292.1428 202.9754  1.00294977  8179
GALAXY 37 (G-37)        
1 57493U 23112A   25288.60299377  .00000000  00000+0  00000+0 0  9993
2 57493   0.0123 195.4884 0002230  26.8988 252.0727  1.00271284  8090
LUDI TANCE-4 01A        
1 57624U 23120A   25284.78288976 -.00000197  00000+0  00000+0 0  9994
2 57624  15.2834 200.1201 0004651  61.8904 130.1725  1.00273147  8056
TJS-10                  
1 58204U 23169A   25288.74564519 -.00000010  00000+0  00000+0 0  9996
2 58204   1.9105  83.4158 0004943 147.4002 235.1516  1.00273080  7094
